ATLAS CENTAUR R/B       
1 06155U 72065B   25310.97632664  .00001718  00000+0  23954-3 0  9993
2 06155  35.0022 304.6718 0033220  57.3784 303.0116 14.77262459823109
SL-8 R/B                
1 08459U 75112B   25311.21440393  .00000444  00000+0  15478-3 0  9999
2 08459  74.0605 244.1971 0015528   1.1345 358.9841 14.38109663614261
SL-3 R/B                
1 10114U 77057B   25311.20308902  .00014753  00000+0  35006-3 0  9995
2 10114  97.5680 113.1819 0007988  14.6851 345.4626 15.41789729649434
SEASAT 1                
1 10967U 78064A   25311.26295993  .00000660  00000+0  22359-3 0  9990
2 10967 108.0059 228.6186 0002485 258.5344 101.5522 14.45999283488810
SL-14 R/B               
1 11267U 79011B   25311.23695103  .00001040  00000+0  10054-3 0  9993
2 11267  82.5263 212.7079 0017646 104.8028 255.5149 14.91702812510529
SL-8 R/B                
1 11574U 79089B   25311.18343075  .00000341  00000+0  11126-3 0  9995
2 11574  74.0682 317.7891 0015265 165.9805 194.1779 14.42245706418440
SL-14 R/B               
1 11672U 80005B   25311.30376650  .00001183  00000+0  11779-3 0  9992
2 11672  82.5152  63.2983 0015088 206.8766 153.1673 14.90718033458256
SL-8 R/B                
1 12139U 81003B   25311.25947846  .00029952  00000+0  83418-3 0  9998
2 12139  82.9339  42.8103 0283338 242.9975 114.2071 15.05094816296221
SL-3 R/B                
1 12465U 81046B   25311.26147514  .00016413  00000+0  42771-3 0  9997
2 12465  81.2332  76.3386 0020789  85.7334 274.6282 15.38505604419583
METEOR PRIRODA          
1 12585U 81065A   25311.22966265  .00489205  11409-3  72491-3 0  9993
2 12585  97.4666  15.1940 0003338 272.6891  87.4008 16.04934542425100
SL-3 R/B                
1 12904U 81103B   25311.24155622  .00008187  00000+0  38269-3 0  9992
2 12904  81.1609 356.9102 0014367 352.0385   8.0615 15.19571833954625
SL-3 R/B                
1 13068U 82013B   25311.24663851  .00006368  00000+0  28751-3 0  9997
2 13068  81.1731 304.1459 0021795 229.8530 130.0792 15.20615259385734
