CCSDS_OMM_VERS = 2.0
CREATION_DATE  = 
ORIGINATOR     = 

OBJECT_NAME    = ATLAS CENTAUR R/B
OBJECT_ID      = 1972-065B
CENTER_NAME    = EARTH
REF_FRAME      = TEME
TIME_SYSTEM    = UTC
MEAN_ELEMENT_THEORY = SGP/SGP4

EPOCH          = 2025-11-06T23:25:54.621696
MEAN_MOTION    = 14.77262459
ECCENTRICITY   = .00332208
INCLINATION    = 35.0022
RA_OF_ASC_NODE = 304.6718
ARG_OF_PERICENTER = 57.3784
MEAN_ANOMALY   = 303.0116

EPHEMERIS_TYPE = 0
CLASSIFICATION_TYPE = U
NORAD_CAT_ID   = 6155
ELEMENT_SET_NO = 999
REV_AT_EPOCH   = 82310
BSTAR          = .23954437E-3
MEAN_MOTION_DOT = .1718E-4
MEAN_MOTION_DDOT = 0

CCSDS_OMM_VERS = 2.0
CREATION_DATE  = 
ORIGINATOR     = 

OBJECT_NAME    = SL-8 R/B
OBJECT_ID      = 1975-112B
CENTER_NAME    = EARTH
REF_FRAME      = TEME
TIME_SYSTEM    = UTC
MEAN_ELEMENT_THEORY = SGP/SGP4

EPOCH          = 2025-11-07T05:08:44.499552
MEAN_MOTION    = 14.38109663
ECCENTRICITY   = .00155284
INCLINATION    = 74.0605
RA_OF_ASC_NODE = 244.1971
ARG_OF_PERICENTER = 1.1345
MEAN_ANOMALY   = 358.9841

EPHEMERIS_TYPE = 0
CLASSIFICATION_TYPE = U
NORAD_CAT_ID   = 8459
ELEMENT_SET_NO = 999
REV_AT_EPOCH   = 61426
BSTAR          = .15478404E-3
MEAN_MOTION_DOT = .444E-5
MEAN_MOTION_DDOT = 0

CCSDS_OMM_VERS = 2.0
CREATION_DATE  = 
ORIGINATOR     = 

OBJECT_NAME    = SL-3 R/B
OBJECT_ID      = 1977-057B
CENTER_NAME    = EARTH
REF_FRAME      = TEME
TIME_SYSTEM    = UTC
MEAN_ELEMENT_THEORY = SGP/SGP4

EPOCH          = 2025-11-07T04:52:26.891328
MEAN_MOTION    = 15.41789729
ECCENTRICITY   = .00079888
INCLINATION    = 97.5680
RA_OF_ASC_NODE = 113.1819
ARG_OF_PERICENTER = 14.6851
MEAN_ANOMALY   = 345.4626

EPHEMERIS_TYPE = 0
CLASSIFICATION_TYPE = U
NORAD_CAT_ID   = 10114
ELEMENT_SET_NO = 999
REV_AT_EPOCH   = 64943
BSTAR          = .35005536E-3
MEAN_MOTION_DOT = .14753E-3
MEAN_MOTION_DDOT = 0

CCSDS_OMM_VERS = 2.0
CREATION_DATE  = 
ORIGINATOR     = 

OBJECT_NAME    = SEASAT 1
OBJECT_ID      = 1978-064A
CENTER_NAME    = EARTH
REF_FRAME      = TEME
TIME_SYSTEM    = UTC
MEAN_ELEMENT_THEORY = SGP/SGP4

EPOCH          = 2025-11-07T06:18:39.737952
MEAN_MOTION    = 14.45999283
ECCENTRICITY   = .0002485
INCLINATION    = 108.0059
RA_OF_ASC_NODE = 228.6186
ARG_OF_PERICENTER = 258.5344
MEAN_ANOMALY   = 101.5522

EPHEMERIS_TYPE = 0
CLASSIFICATION_TYPE = U
NORAD_CAT_ID   = 10967
ELEMENT_SET_NO = 999
REV_AT_EPOCH   = 48881
BSTAR          = .22358972E-3
MEAN_MOTION_DOT = .66E-5
MEAN_MOTION_DDOT = 0

CCSDS_OMM_VERS = 2.0
CREATION_DATE  = 
ORIGINATOR     = 

OBJECT_NAME    = SL-14 R/B
OBJECT_ID      = 1979-011B
CENTER_NAME    = EARTH
REF_FRAME      = TEME
TIME_SYSTEM    = UTC
MEAN_ELEMENT_THEORY = SGP/SGP4

EPOCH          = 2025-11-07T05:41:12.568992
MEAN_MOTION    = 14.91702812
ECCENTRICITY   = .00176461
INCLINATION    = 82.5263
RA_OF_ASC_NODE = 212.7079
ARG_OF_PERICENTER = 104.8028
MEAN_ANOMALY   = 255.5149

EPHEMERIS_TYPE = 0
CLASSIFICATION_TYPE = U
NORAD_CAT_ID   = 11267
ELEMENT_SET_NO = 999
REV_AT_EPOCH   = 51052
BSTAR          = .10053916E-3
MEAN_MOTION_DOT = .104E-4
MEAN_MOTION_DDOT = 0

CCSDS_OMM_VERS = 2.0
CREATION_DATE  = 
ORIGINATOR     = 

OBJECT_NAME    = SL-8 R/B
OBJECT_ID      = 1979-089B
CENTER_NAME    = EARTH
REF_FRAME      = TEME
TIME_SYSTEM    = UTC
MEAN_ELEMENT_THEORY = SGP/SGP4

EPOCH          = 2025-11-07T04:24:08.416800
MEAN_MOTION    = 14.42245706
ECCENTRICITY   = .00152653
INCLINATION    = 74.0682
RA_OF_ASC_NODE = 317.7891
ARG_OF_PERICENTER = 165.9805
MEAN_ANOMALY   = 194.1779

EPHEMERIS_TYPE = 0
CLASSIFICATION_TYPE = U
NORAD_CAT_ID   = 11574
ELEMENT_SET_NO = 999
REV_AT_EPOCH   = 41844
BSTAR          = .11126448E-3
MEAN_MOTION_DOT = .341E-5
MEAN_MOTION_DDOT = 0

CCSDS_OMM_VERS = 2.0
CREATION_DATE  = 
ORIGINATOR     = 

OBJECT_NAME    = SL-14 R/B
OBJECT_ID      = 1980-005B
CENTER_NAME    = EARTH
REF_FRAME      = TEME
TIME_SYSTEM    = UTC
MEAN_ELEMENT_THEORY = SGP/SGP4

EPOCH          = 2025-11-07T07:17:25.425600
MEAN_MOTION    = 14.90718033
ECCENTRICITY   = .00150884
INCLINATION    = 82.5152
RA_OF_ASC_NODE = 63.2983
ARG_OF_PERICENTER = 206.8766
MEAN_ANOMALY   = 153.1673

EPHEMERIS_TYPE = 0
CLASSIFICATION_TYPE = U
NORAD_CAT_ID   = 11672
ELEMENT_SET_NO = 999
REV_AT_EPOCH   = 45825
BSTAR          = .11779068E-3
MEAN_MOTION_DOT = .1183E-4
MEAN_MOTION_DDOT = 0

CCSDS_OMM_VERS = 2.0
CREATION_DATE  = 
ORIGINATOR     = 

OBJECT_NAME    = SL-8 R/B
OBJECT_ID      = 1981-003B
CENTER_NAME    = EARTH
REF_FRAME      = TEME
TIME_SYSTEM    = UTC
MEAN_ELEMENT_THEORY = SGP/SGP4

EPOCH          = 2025-11-07T06:13:38.938944
MEAN_MOTION    = 15.05094816
ECCENTRICITY   = .02833388
INCLINATION    = 82.9339
RA_OF_ASC_NODE = 42.8103
ARG_OF_PERICENTER = 242.9975
MEAN_ANOMALY   = 114.2071

EPHEMERIS_TYPE = 0
CLASSIFICATION_TYPE = U
NORAD_CAT_ID   = 12139
ELEMENT_SET_NO = 999
REV_AT_EPOCH   = 29622
BSTAR          = .83418416E-3
MEAN_MOTION_DOT = .29952E-3
MEAN_MOTION_DDOT = 0

CCSDS_OMM_VERS = 2.0
CREATION_DATE  = 
ORIGINATOR     = 

OBJECT_NAME    = SL-3 R/B
OBJECT_ID      = 1981-046B
CENTER_NAME    = EARTH
REF_FRAME      = TEME
TIME_SYSTEM    = UTC
MEAN_ELEMENT_THEORY = SGP/SGP4

EPOCH          = 2025-11-07T06:16:31.452096
MEAN_MOTION    = 15.38505604
ECCENTRICITY   = .00207896
INCLINATION    = 81.2332
RA_OF_ASC_NODE = 76.3386
ARG_OF_PERICENTER = 85.7334
MEAN_ANOMALY   = 274.6282

EPHEMERIS_TYPE = 0
CLASSIFICATION_TYPE = U
NORAD_CAT_ID   = 12465
ELEMENT_SET_NO = 999
REV_AT_EPOCH   = 41958
BSTAR          = .42771276E-3
MEAN_MOTION_DOT = .16413E-3
MEAN_MOTION_DDOT = 0

CCSDS_OMM_VERS = 2.0
CREATION_DATE  = 
ORIGINATOR     = 

OBJECT_NAME    = METEOR PRIRODA
OBJECT_ID      = 1981-065A
CENTER_NAME    = EARTH
REF_FRAME      = TEME
TIME_SYSTEM    = UTC
MEAN_ELEMENT_THEORY = SGP/SGP4

EPOCH          = 2025-11-07T05:30:42.852960
MEAN_MOTION    = 16.04934542
ECCENTRICITY   = .00033386
INCLINATION    = 97.4666
RA_OF_ASC_NODE = 15.1940
ARG_OF_PERICENTER = 272.6891
MEAN_ANOMALY   = 87.4008

EPHEMERIS_TYPE = 0
CLASSIFICATION_TYPE = U
NORAD_CAT_ID   = 12585
ELEMENT_SET_NO = 999
REV_AT_EPOCH   = 42510
BSTAR          = .72491111E-3
MEAN_MOTION_DOT = .489205E-2
MEAN_MOTION_DDOT = .11408718E-3

CCSDS_OMM_VERS = 2.0
CREATION_DATE  = 
ORIGINATOR     = 

OBJECT_NAME    = SL-3 R/B
OBJECT_ID      = 1981-103B
CENTER_NAME    = EARTH
REF_FRAME      = TEME
TIME_SYSTEM    = UTC
MEAN_ELEMENT_THEORY = SGP/SGP4

EPOCH          = 2025-11-07T05:47:50.457408
MEAN_MOTION    = 15.19571833
ECCENTRICITY   = .0014367
INCLINATION    = 81.1609
RA_OF_ASC_NODE = 356.9102
ARG_OF_PERICENTER = 352.0385
MEAN_ANOMALY   = 8.0615

EPHEMERIS_TYPE = 0
CLASSIFICATION_TYPE = U
NORAD_CAT_ID   = 12904
ELEMENT_SET_NO = 999
REV_AT_EPOCH   = 95462
BSTAR          = .38269421E-3
MEAN_MOTION_DOT = .8187E-4
MEAN_MOTION_DDOT = 0

CCSDS_OMM_VERS = 2.0
CREATION_DATE  = 
ORIGINATOR     = 

OBJECT_NAME    = SL-3 R/B
OBJECT_ID      = 1982-013B
CENTER_NAME    = EARTH
REF_FRAME      = TEME
TIME_SYSTEM    = UTC
MEAN_ELEMENT_THEORY = SGP/SGP4

EPOCH          = 2025-11-07T05:55:09.567264
MEAN_MOTION    = 15.20615259
ECCENTRICITY   = .00217951
INCLINATION    = 81.1731
RA_OF_ASC_NODE = 304.1459
ARG_OF_PERICENTER = 229.8530
MEAN_ANOMALY   = 130.0792

EPHEMERIS_TYPE = 0
CLASSIFICATION_TYPE = U
NORAD_CAT_ID   = 13068
ELEMENT_SET_NO = 999
REV_AT_EPOCH   = 38573
BSTAR          = .28751345E-3
MEAN_MOTION_DOT = .6368E-4
MEAN_MOTION_DDOT = 0

